{
  "type": "FeatureCollection",
  "features": [
    {
      "type": "Feature",
      "properties": {
        "norad_id": 30931,
        "name": "FENGYUN 1C DEB",
        "group": "fengyun-1c-debris",
        "lat": -30.702042298405495,
        "lon": 47.73488062407023,
        "alt_km": 879.9297721330904,
        "timestamp": "2025-12-10T16:57:11.916143+00:00",
        "meta_object_name": "FENGYUN 1C DEB",
        "meta_object_id": "1999-025AZV",
        "meta_epoch": "2025-12-10T10:20:08.217024",
        "meta_mean_motion": 14.01506386,
        "meta_eccentricity": 0.0093259,
        "meta_inclination": 99.1725,
        "meta_ra_of_asc_node": 41.9522,
        "meta_arg_of_pericenter": 47.8402,
        "meta_mean_anomaly": 331.7131,
        "meta_ephemeris_type": 0,
        "meta_classification_type": "U",
        "meta_norad_cat_id": 30931,
        "meta_element_set_no": 999,
        "meta_rev_at_epoch": 95893,
        "meta_bstar": 0.00075875,
        "meta_mean_motion_dot": 1.146e-05,
        "meta_mean_motion_ddot": 0,
        "tle_line1": "1 30931U 99025AZV 25344.43065066  .00001146  00000+0  75875-3 0  9995",
        "tle_line2": "2 30931  99.1725  41.9522 0093259  47.8402 331.7131 14.01506386958934"
      },
      "geometry": {
        "type": "Point",
        "coordinates": [
          47.73488062407023,
          -30.702042298405495
        ]
      }
    },
    {
      "type": "Feature",
      "properties": {
        "norad_id": 30932,
        "name": "FENGYUN 1C DEB",
        "group": "fengyun-1c-debris",
        "lat": 72.5055645756694,
        "lon": -112.27228806330993,
        "alt_km": 825.4122430259713,
        "timestamp": "2025-12-10T16:57:11.916153+00:00",
        "meta_object_name": "FENGYUN 1C DEB",
        "meta_object_id": "1999-025AZW",
        "meta_epoch": "2025-12-08T02:19:41.341728",
        "meta_mean_motion": 14.26708318,
        "meta_eccentricity": 0.00588981,
        "meta_inclination": 98.9089,
        "meta_ra_of_asc_node": 274.9171,
        "meta_arg_of_pericenter": 307.369,
        "meta_mean_anomaly": 52.2134,
        "meta_ephemeris_type": 0,
        "meta_classification_type": "U",
        "meta_norad_cat_id": 30932,
        "meta_element_set_no": 999,
        "meta_rev_at_epoch": 96328,
        "meta_bstar": 0.0038530634,
        "meta_mean_motion_dot": 9.459e-05,
        "meta_mean_motion_ddot": 0,
        "tle_line1": "1 30932U 99025AZW 25342.09700627  .00009459  00000+0  38531-2 0  9997",
        "tle_line2": "2 30932  98.9089 274.9171 0058898 307.3690  52.2134 14.26708318963284"
      },
      "geometry": {
        "type": "Point",
        "coordinates": [
          -112.27228806330993,
          72.5055645756694
        ]
      }
    },
    {
      "type": "Feature",
      "properties": {
        "norad_id": 30933,
        "name": "FENGYUN 1C DEB",
        "group": "fengyun-1c-debris",
        "lat": -77.36876125320144,
        "lon": 101.77637407886888,
        "alt_km": 756.2197493805679,
        "timestamp": "2025-12-10T16:57:11.916162+00:00",
        "meta_object_name": "FENGYUN 1C DEB",
        "meta_object_id": "1999-025AZX",
        "meta_epoch": "2025-12-10T11:19:24.102336",
        "meta_mean_motion": 14.36375689,
        "meta_eccentricity": 0.0077184,
        "meta_inclination": 99.048,
        "meta_ra_of_asc_node": 326.8508,
        "meta_arg_of_pericenter": 329.2521,
        "meta_mean_anomaly": 160.3719,
        "meta_ephemeris_type": 0,
        "meta_classification_type": "U",
        "meta_norad_cat_id": 30933,
        "meta_element_set_no": 999,
        "meta_rev_at_epoch": 95839,
        "meta_bstar": 0.0082769,
        "meta_mean_motion_dot": 0.00025112,
        "meta_mean_motion_ddot": 0,
        "tle_line1": "1 30933U 99025AZX 25344.47180674  .00025112  00000+0  82769-2 0  9992",
        "tle_line2": "2 30933  99.0480 326.8508 0077184 329.2521 160.3719 14.36375689958396"
      },
      "geometry": {
        "type": "Point",
        "coordinates": [
          101.77637407886888,
          -77.36876125320144
        ]
      }
    },
    {
      "type": "Feature",
      "properties": {
        "norad_id": 30934,
        "name": "FENGYUN 1C DEB",
        "group": "fengyun-1c-debris",
        "lat": 38.699120055878765,
        "lon": 49.052989139670366,
        "alt_km": 926.3556176145676,
        "timestamp": "2025-12-10T16:57:11.916172+00:00",
        "meta_object_name": "FENGYUN 1C DEB",
        "meta_object_id": "1999-025AZY",
        "meta_epoch": "2025-12-10T02:01:39.332928",
        "meta_mean_motion": 13.46730222,
        "meta_eccentricity": 0.03403879,
        "meta_inclination": 98.7657,
        "meta_ra_of_asc_node": 221.4073,
        "meta_arg_of_pericenter": 88.2702,
        "meta_mean_anomaly": 275.7382,
        "meta_ephemeris_type": 0,
        "meta_classification_type": "U",
        "meta_norad_cat_id": 30934,
        "meta_element_set_no": 999,
        "meta_rev_at_epoch": 91672,
        "meta_bstar": 0.0023512802,
        "meta_mean_motion_dot": 1.988e-05,
        "meta_mean_motion_ddot": 0,
        "tle_line1": "1 30934U 99025AZY 25344.08448302  .00001988  00000+0  23513-2 0  9992",
        "tle_line2": "2 30934  98.7657 221.4073 0340387  88.2702 275.7382 13.46730222916723"
      },
      "geometry": {
        "type": "Point",
        "coordinates": [
          49.052989139670366,
          38.699120055878765
        ]
      }
    },
    {
      "type": "Feature",
      "properties": {
        "norad_id": 30936,
        "name": "FENGYUN 1C DEB",
        "group": "fengyun-1c-debris",
        "lat": -29.911843769045763,
        "lon": 20.542034684950547,
        "alt_km": 792.1148185889579,
        "timestamp": "2025-12-10T16:57:11.916182+00:00",
        "meta_object_name": "FENGYUN 1C DEB",
        "meta_object_id": "1999-025BAA",
        "meta_epoch": "2025-12-10T08:43:50.287008",
        "meta_mean_motion": 14.23364726,
        "meta_eccentricity": 0.0045961,
        "meta_inclination": 98.582,
        "meta_ra_of_asc_node": 15.224,
        "meta_arg_of_pericenter": 297.8126,
        "meta_mean_anomaly": 77.1379,
        "meta_ephemeris_type": 0,
        "meta_classification_type": "U",
        "meta_norad_cat_id": 30936,
        "meta_element_set_no": 999,
        "meta_rev_at_epoch": 97099,
        "meta_bstar": 0.00074537,
        "meta_mean_motion_dot": 1.666e-05,
        "meta_mean_motion_ddot": 0,
        "tle_line1": "1 30936U 99025BAA 25344.36377647  .00001666  00000+0  74537-3 0  9994",
        "tle_line2": "2 30936  98.5820  15.2240 0045961 297.8126  77.1379 14.23364726970995"
      },
      "geometry": {
        "type": "Point",
        "coordinates": [
          20.542034684950547,
          -29.911843769045763
        ]
      }
    },
    {
      "type": "Feature",
      "properties": {
        "norad_id": 30937,
        "name": "FENGYUN 1C DEB",
        "group": "fengyun-1c-debris",
        "lat": 2.542824701683165,
        "lon": 36.688416727270884,
        "alt_km": 880.5504971038672,
        "timestamp": "2025-12-10T16:57:11.916192+00:00",
        "meta_object_name": "FENGYUN 1C DEB",
        "meta_object_id": "1999-025BAB",
        "meta_epoch": "2025-12-10T10:07:46.510176",
        "meta_mean_motion": 13.95583363,
        "meta_eccentricity": 0.0075816,
        "meta_inclination": 99.089,
        "meta_ra_of_asc_node": 36.8154,
        "meta_arg_of_pericenter": 59.5665,
        "meta_mean_anomaly": 316.1596,
        "meta_ephemeris_type": 0,
        "meta_classification_type": "U",
        "meta_norad_cat_id": 30937,
        "meta_element_set_no": 999,
        "meta_rev_at_epoch": 95684,
        "meta_bstar": 0.00010335,
        "meta_mean_motion_dot": 1e-06,
        "meta_mean_motion_ddot": 0,
        "tle_line1": "1 30937U 99025BAB 25344.42206609  .00000100  00000+0  10335-3 0  9999",
        "tle_line2": "2 30937  99.0890  36.8154 0075816  59.5665 316.1596 13.95583363956848"
      },
      "geometry": {
        "type": "Point",
        "coordinates": [
          36.688416727270884,
          2.542824701683165
        ]
      }
    },
    {
      "type": "Feature",
      "properties": {
        "norad_id": 30938,
        "name": "FENGYUN 1C DEB",
        "group": "fengyun-1c-debris",
        "lat": -81.16927110892753,
        "lon": 101.5926261899726,
        "alt_km": 828.3903948772677,
        "timestamp": "2025-12-10T16:57:11.916202+00:00",
        "meta_object_name": "FENGYUN 1C DEB",
        "meta_object_id": "1999-025BAC",
        "meta_epoch": "2025-12-10T07:19:46.993728",
        "meta_mean_motion": 14.19813599,
        "meta_eccentricity": 0.0046041,
        "meta_inclination": 98.5909,
        "meta_ra_of_asc_node": 357.8699,
        "meta_arg_of_pericenter": 350.8505,
        "meta_mean_anomaly": 29.2404,
        "meta_ephemeris_type": 0,
        "meta_classification_type": "U",
        "meta_norad_cat_id": 30938,
        "meta_element_set_no": 999,
        "meta_rev_at_epoch": 97085,
        "meta_bstar": 0.00055317,
        "meta_mean_motion_dot": 1.142e-05,
        "meta_mean_motion_ddot": 0,
        "tle_line1": "1 30938U 99025BAC 25344.30540502  .00001142  00000+0  55317-3 0  9996",
        "tle_line2": "2 30938  98.5909 357.8699 0046041 350.8505  29.2404 14.19813599970853"
      },
      "geometry": {
        "type": "Point",
        "coordinates": [
          101.5926261899726,
          -81.16927110892753
        ]
      }
    }
  ]
}